{"type": "FeatureCollection", "features": [ {"type": "Feature", "properties": {"norad_id": 41019, "name": "GPS BIIF-11 (PRN 10)", "group": "gnss", "lat": -40.31078423685544, "lon": 4.755909165977181, "alt_km": 20131.63088652631, "timestamp": "2025-12-02T06:27:53.256711+00:00", "meta": {"OBJECT_NAME": "GPS BIIF-11 (PRN 10)", "OBJECT_ID": "2015-062A", "EPOCH": "2025-12-01T08:13:28.844544", "MEAN_MOTION": 2.00567003, "ECCENTRICITY": 0.01104814, "INCLINATION": 56.824, "RA_OF_ASC_NODE": 38.4433, "ARG_OF_PERICENTER": 229.6355, "MEAN_ANOMALY": 129.443, "EPHEMERIS_TYPE": 0, "CLASSIFICATION_TYPE": "U", "NORAD_CAT_ID": 41019, "ELEMENT_SET_NO": 999, "REV_AT_EPOCH": 7386, "BSTAR": 0, "MEAN_MOTION_DOT": -6.4e-07, "MEAN_MOTION_DDOT": 0}, "tle": {"line1": "1 41019U 15062A   25335.34269496 -.00000064  00000+0  00000+0 0  9999", "line2": "2 41019  56.8240  38.4433 0110481 229.6355 129.4430  2.00567003 73864"}}, "geometry": {"type": "Point", "coordinates": [4.755909165977181, -40.31078423685544]}}, {"type": "Feature", "properties": {"norad_id": 41028, "name": "GSAT-15 (GAGAN/PRN 139)", "group": "gnss", "lat": -0.025521494147979808, "lon": -98.17215263060845, "alt_km": 35775.1534298661, "timestamp": "2025-12-02T06:27:53.256722+00:00", "meta": {"OBJECT_NAME": "GSAT-15 (GAGAN/PRN 139)", "OBJECT_ID": "2015-065A", "EPOCH": "2025-12-01T15:58:12.726048", "MEAN_MOTION": 1.00270917, "ECCENTRICITY": 0.0003058, "INCLINATION": 0.0136, "RA_OF_ASC_NODE": 9.6854, "ARG_OF_PERICENTER": 222.141, "MEAN_ANOMALY": 172.0005, "EPHEMERIS_TYPE": 0, "CLASSIFICATION_TYPE": "U", "NORAD_CAT_ID": 41028, "ELEMENT_SET_NO": 999, "REV_AT_EPOCH": 3681, "BSTAR": 0, "MEAN_MOTION_DOT": -2.36e-06, "MEAN_MOTION_DDOT": 0}, "tle": {"line1": "1 41028U 15065A   25335.66542507 -.00000236  00000+0  00000+0 0  9995", "line2": "2 41028   0.0136   9.6854 0003058 222.1410 172.0005  1.00270917 36817"}}, "geometry": {"type": "Point", "coordinates": [-98.17215263060845, -0.025521494147979808]}}, {"type": "Feature", "properties": {"norad_id": 41174, "name": "GSAT0209 (GALILEO 12)", "group": "gnss", "lat": -14.86975497294705, "lon": -62.91736707184154, "alt_km": 23230.828821073126, "timestamp": "2025-12-02T06:27:53.256734+00:00", "meta": {"OBJECT_NAME": "GSAT0209 (GALILEO 12)", "OBJECT_ID": "2015-079A", "EPOCH": "2025-11-29T00:19:48.752544", "MEAN_MOTION": 1.70474337, "ECCENTRICITY": 0.00023288, "INCLINATION": 55.7045, "RA_OF_ASC_NODE": 106.7579, "ARG_OF_PERICENTER": 359.5232, "MEAN_ANOMALY": 0.4568, "EPHEMERIS_TYPE": 0, "CLASSIFICATION_TYPE": "U", "NORAD_CAT_ID": 41174, "ELEMENT_SET_NO": 999, "REV_AT_EPOCH": 6136, "BSTAR": 0, "MEAN_MOTION_DOT": 5.4e-07, "MEAN_MOTION_DDOT": 0}, "tle": {"line1": "1 41174U 15079A   25333.01375871  .00000054  00000+0  00000+0 0  9994", "line2": "2 41174  55.7045 106.7579 0002328 359.5232   0.4568  1.70474337 61369"}}, "geometry": {"type": "Point", "coordinates": [-62.91736707184154, -14.86975497294705]}}, {"type": "Feature", "properties": {"norad_id": 41175, "name": "GSAT0208 (GALILEO 11)", "group": "gnss", "lat": 47.38599066228354, "lon": 154.50413470261495, "alt_km": 23213.044600362304, "timestamp": "2025-12-02T06:27:53.256745+00:00", "meta": {"OBJECT_NAME": "GSAT0208 (GALILEO 11)", "OBJECT_ID": "2015-079B", "EPOCH": "2025-11-30T09:46:10.644960", "MEAN_MOTION": 1.70474193, "ECCENTRICITY": 0.00018872, "INCLINATION": 55.7038, "RA_OF_ASC_NODE": 106.7167, "ARG_OF_PERICENTER": 11.7228, "MEAN_ANOMALY": 348.2564, "EPHEMERIS_TYPE": 0, "CLASSIFICATION_TYPE": "U", "NORAD_CAT_ID": 41175, "ELEMENT_SET_NO": 999, "REV_AT_EPOCH": 6180, "BSTAR": 0, "MEAN_MOTION_DOT": 4.8e-07, "MEAN_MOTION_DDOT": 0}, "tle": {"line1": "1 41175U 15079B   25334.40706765  .00000048  00000+0  00000+0 0  9992", "line2": "2 41175  55.7038 106.7167 0001887  11.7228 348.2564  1.70474193 61804"}}, "geometry": {"type": "Point", "coordinates": [154.50413470261495, 47.38599066228354]}}, {"type": "Feature", "properties": {"norad_id": 41241, "name": "IRNSS-1E", "group": "gnss", "lat": -19.31698277411095, "lon": -84.5048047503181, "alt_km": 35707.33327725033, "timestamp": "2025-12-02T06:27:53.256759+00:00", "meta": {"OBJECT_NAME": "IRNSS-1E", "OBJECT_ID": "2016-003A", "EPOCH": "2025-12-01T16:03:27.223776", "MEAN_MOTION": 1.00278544, "ECCENTRICITY": 0.0021918, "INCLINATION": 32.8014, "RA_OF_ASC_NODE": 62.6145, "ARG_OF_PERICENTER": 186.5756, "MEAN_ANOMALY": 174.1351, "EPHEMERIS_TYPE": 0, "CLASSIFICATION_TYPE": "U", "NORAD_CAT_ID": 41241, "ELEMENT_SET_NO": 999, "REV_AT_EPOCH": 3610, "BSTAR": 0, "MEAN_MOTION_DOT": -2.97e-06, "MEAN_MOTION_DDOT": 0}, "tle": {"line1": "1 41241U 16003A   25335.66906509 -.00000297  00000+0  00000+0 0  9998", "line2": "2 41241  32.8014  62.6145 0021918 186.5756 174.1351  1.00278544 36108"}}, "geometry": {"type": "Point", "coordinates": [-84.5048047503181, -19.31698277411095]}}, {"type": "Feature", "properties": {"norad_id": 41328, "name": "GPS BIIF-12 (PRN 32)", "group": "gnss", "lat": -50.17183936888512, "lon": -26.94324193580903, "alt_km": 19946.22625873373, "timestamp": "2025-12-02T06:27:53.256770+00:00", "meta": {"OBJECT_NAME": "GPS BIIF-12 (PRN 32)", "OBJECT_ID": "2016-007A", "EPOCH": "2025-11-30T22:13:59.280384", "MEAN_MOTION": 2.0056118, "ECCENTRICITY": 0.00915893, "INCLINATION": 55.3993, "RA_OF_ASC_NODE": 97.326, "ARG_OF_PERICENTER": 243.2849, "MEAN_ANOMALY": 115.759, "EPHEMERIS_TYPE": 0, "CLASSIFICATION_TYPE": "U", "NORAD_CAT_ID": 41328, "ELEMENT_SET_NO": 999, "REV_AT_EPOCH": 7186, "BSTAR": 0, "MEAN_MOTION_DOT": 2.3e-07, "MEAN_MOTION_DDOT": 0}, "tle": {"line1": "1 41328U 16007A   25334.92638056  .00000023  00000+0  00000+0 0  9991", "line2": "2 41328  55.3993  97.3260 0091589 243.2849 115.7590  2.00561180 71868"}}, "geometry": {"type": "Point", "coordinates": [-26.94324193580903, -50.17183936888512]}}, {"type": "Feature", "properties": {"norad_id": 41330, "name": "COSMOS 2514 (751)", "group": "gnss", "lat": 49.01150497851697, "lon": -7.990195805618355, "alt_km": 19154.905628808297, "timestamp": "2025-12-02T06:27:53.256782+00:00", "meta": {"OBJECT_NAME": "COSMOS 2514 (751)", "OBJECT_ID": "2016-008A", "EPOCH": "2025-12-01T06:10:30.326016", "MEAN_MOTION": 2.13102518, "ECCENTRICITY": 0.0012529, "INCLINATION": 65.1403, "RA_OF_ASC_NODE": 319.7975, "ARG_OF_PERICENTER": 219.8281, "MEAN_ANOMALY": 140.091, "EPHEMERIS_TYPE": 0, "CLASSIFICATION_TYPE": "U", "NORAD_CAT_ID": 41330, "ELEMENT_SET_NO": 999, "REV_AT_EPOCH": 7640, "BSTAR": 0, "MEAN_MOTION_DOT": -2.7e-07, "MEAN_MOTION_DDOT": 0}, "tle": {"line1": "1 41330U 16008A   25335.25729544 -.00000027  00000+0  00000+0 0  9990", "line2": "2 41330  65.1403 319.7975 0012529 219.8281 140.0910  2.13102518 76408"}}, "geometry": {"type": "Point", "coordinates": [-7.990195805618355, 49.01150497851697]}}, {"type": "Feature", "properties": {"norad_id": 41384, "name": "IRNSS-1F", "group": "gnss", "lat": 4.772677736066159, "lon": -159.48066909437873, "alt_km": 35770.43646969682, "timestamp": "2025-12-02T06:27:53.256795+00:00", "meta": {"OBJECT_NAME": "IRNSS-1F", "OBJECT_ID": "2016-015A", "EPOCH": "2025-12-01T13:58:09.226272", "MEAN_MOTION": 1.002668, "ECCENTRICITY": 0.00223665, "INCLINATION": 4.8523, "RA_OF_ASC_NODE": 101.5772, "ARG_OF_PERICENTER": 179.3166, "MEAN_ANOMALY": 31.7686, "EPHEMERIS_TYPE": 0, "CLASSIFICATION_TYPE": "U", "NORAD_CAT_ID": 41384, "ELEMENT_SET_NO": 999, "REV_AT_EPOCH": 3568, "BSTAR": 0, "MEAN_MOTION_DOT": 1.8e-06, "MEAN_MOTION_DDOT": 0}, "tle": {"line1": "1 41384U 16015A   25335.58205123  .00000180  00000+0  00000+0 0  9994", "line2": "2 41384   4.8523 101.5772 0022366 179.3166  31.7686  1.00266800 35685"}}, "geometry": {"type": "Point", "coordinates": [-159.48066909437873, 4.772677736066159]}}, {"type": "Feature", "properties": {"norad_id": 41434, "name": "BEIDOU-2 IGSO-6 (C13)", "group": "gnss", "lat": -33.92979987010905, "lon": -117.09173114625413, "alt_km": 35549.42992035679, "timestamp": "2025-12-02T06:27:53.256806+00:00", "meta": {"OBJECT_NAME": "BEIDOU-2 IGSO-6 (C13)", "OBJECT_ID": "2016-021A", "EPOCH": "2025-11-29T16:01:16.721760", "MEAN_MOTION": 1.00257137, "ECCENTRICITY": 0.00590915, "INCLINATION": 59.9454, "RA_OF_ASC_NODE": 40.0323, "ARG_OF_PERICENTER": 231.0312, "MEAN_ANOMALY": 130.2075, "EPHEMERIS_TYPE": 0, "CLASSIFICATION_TYPE": "U", "NORAD_CAT_ID": 41434, "ELEMENT_SET_NO": 999, "REV_AT_EPOCH": 3548, "BSTAR": 0, "MEAN_MOTION_DOT": -1.5e-06, "MEAN_MOTION_DDOT": 0}, "tle": {"line1": "1 41434U 16021A   25333.66755465 -.00000150  00000+0  00000+0 0  9991", "line2": "2 41434  59.9454  40.0323 0059091 231.0312 130.2075  1.00257137 35486"}}, "geometry": {"type": "Point", "coordinates": [-117.09173114625413, -33.92979987010905]}}, {"type": "Feature", "properties": {"norad_id": 41469, "name": "IRNSS-1G", "group": "gnss", "lat": -1.2652183203199328, "lon": -62.229825731380906, "alt_km": 35793.646287317584, "timestamp": "2025-12-02T06:27:53.256819+00:00", "meta": {"OBJECT_NAME": "IRNSS-1G", "OBJECT_ID": "2016-027A", "EPOCH": "2025-12-01T20:42:51.672384", "MEAN_MOTION": 1.00266862, "ECCENTRICITY": 0.0001414, "INCLINATION": 4.7099, "RA_OF_ASC_NODE": 102.3688, "ARG_OF_PERICENTER": 16.5693, "MEAN_ANOMALY": 32.2523, "EPHEMERIS_TYPE": 0, "CLASSIFICATION_TYPE": "U", "NORAD_CAT_ID": 41469, "ELEMENT_SET_NO": 999, "REV_AT_EPOCH": 3520, "BSTAR": 0, "MEAN_MOTION_DOT": -3.13e-06, "MEAN_MOTION_DDOT": 0}, "tle": {"line1": "1 41469U 16027A   25335.86309806 -.00000313  00000+0  00000+0 0  9994", "line2": "2 41469   4.7099 102.3688 0001414  16.5693  32.2523  1.00266862 35201"}}, "geometry": {"type": "Point", "coordinates": [-62.229825731380906, -1.2652183203199328]}}]}